NORAD_CAT_ID,OBJECT_NAME,OBJECT_TYPE,EPOCH,MEAN_MOTION,ECCENTRICITY,INCLINATION,RA_OF_ASC_NODE,ARG_OF_PERICENTER,MEAN_ANOMALY,BSTAR,MEAN_MOTION_DOT,MEAN_MOTION_DDOT,TLE_LINE0,TLE_LINE1,TLE_LINE2,SEMIMAJOR_AXIS,PERIOD,APOGEE,PERIGEE,DECAYED
55636.0,STARLINK-5218,PAYLOAD,2024-07-12 14:27:47,14.98324733,0.0002719,70.0014,290.0322,252.7015,107.3847,9.5804e-05,1.05e-05,0.0,0 STARLINK-5218,1 55636U 23021J   24194.60263291  .00001050  00000-0  95804-4 0  9998,2 55636  70.0014 290.0322 0002719 252.7015 107.3847 14.98324733 77668,6950.209,96.107,573.964,570.184,0.0
55636.0,STARLINK-5218,PAYLOAD,2024-07-12 16:03:55,14.98324924,0.0002747,70.0013,289.8638,254.046,106.0397,9.2757e-05,1.014e-05,0.0,0 STARLINK-5218,1 55636U 23021J   24194.66939294  .00001014  00000-0  92757-4 0  9991,2 55636  70.0013 289.8638 0002747 254.0460 106.0397 14.98324924 77672,6950.209,96.107,573.983,570.164,0.0
55636.0,STARLINK-5218,PAYLOAD,2024-07-13 12:53:39,14.9833923,0.0003287,70.0,287.6736,269.1516,90.9266,2.9339e-06,-5.8e-07,0.0,0 STARLINK-5218,1 55636U 23021J   24195.53726488 -.00000058  00000-0  29339-5 0  9992,2 55636  70.0000 287.6736 0003287 269.1516  90.9266 14.98339230 77506,6950.164,96.106,574.314,569.745,0.0
55636.0,STARLINK-5218,PAYLOAD,2024-07-13 14:29:47,14.98339776,0.0003345,69.9999,287.5053,270.5338,89.5438,-3.9595e-06,-1.4e-06,0.0,0 STARLINK-5218,1 55636U 23021J   24195.60402442 -.00000140  00000-0 -39595-5 0  9999,2 55636  69.9999 287.5053 0003345 270.5338  89.5438 14.98339776 77818,6950.163,96.106,574.352,569.703,0.0
55636.0,STARLINK-5218,PAYLOAD,2024-07-13 16:05:55,14.98340836,0.0003349,69.9999,287.3369,270.3157,89.7618,6.1852e-06,-1.9e-07,0.0,0 STARLINK-5218,1 55636U 23021J   24195.67078323 -.00000019  00000-0  61852-5 0  9998,2 55636  69.9999 287.3369 0003349 270.3157  89.7618 14.98340836 77829,6950.159,96.106,574.352,569.697,0.0
55636.0,STARLINK-5218,PAYLOAD,2024-07-14 12:55:40,14.98338441,0.0003298,69.9999,285.1489,270.0503,90.0278,0.00016604,1.889e-05,0.0,0 STARLINK-5218,1 55636U 23021J   24196.53866074  .00001889  00000-0  16604-3 0  9990,2 55636  69.9999 285.1489 0003298 270.0503  90.0278 14.98338441 77650,6950.167,96.106,574.324,569.74,0.0
55636.0,STARLINK-5218,PAYLOAD,2024-07-14 14:31:48,14.98338874,0.0003295,69.9999,284.9806,270.0511,90.027,0.00017091,1.947e-05,0.0,0 STARLINK-5218,1 55636U 23021J   24196.60542033  .00001947  00000-0  17091-3 0  9990,2 55636  69.9999 284.9806 0003295 270.0511  90.0270 14.98338874 77962,6950.165,96.106,574.321,569.74,0.0
55636.0,STARLINK-5218,PAYLOAD,2024-07-14 16:07:56,14.98340452,0.000329,69.9999,284.8123,270.0405,90.0378,0.00018953,2.17e-05,0.0,0 STARLINK-5218,1 55636U 23021J   24196.67217893  .00002170  00000-0  18953-3 0  9997,2 55636  69.9999 284.8123 0003290 270.0405  90.0378 14.98340452 77975,6950.161,96.106,574.312,569.739,0.0
55636.0,STARLINK-5218,PAYLOAD,2024-07-15 12:57:41,14.98329348,0.0003192,70.0004,282.6243,272.9644,87.115,7.0804e-05,7.52e-06,0.0,0 STARLINK-5218,1 55636U 23021J   24197.54006761  .00000752  00000-0  70804-4 0  9992,2 55636  70.0004 282.6243 0003192 272.9644  87.1150 14.98329348 77809,6950.195,96.107,574.278,569.841,0.0
55636.0,STARLINK-5218,PAYLOAD,2024-07-15 14:33:49,14.98333129,0.0003163,70.0003,282.456,271.4909,88.5887,4.0154e-05,3.86e-06,0.0,0 STARLINK-5218,1 55636U 23021J   24197.60682549  .00000386  00000-0  40154-4 0  9991,2 55636  70.0003 282.4560 0003163 271.4909  88.5887 14.98333129 78113,6950.183,96.107,574.247,569.85,0.0
55636.0,STARLINK-5218,PAYLOAD,2024-07-15 22:34:30,14.98330048,0.0003131,70.0004,281.6155,267.8059,92.2742,-2.7383e-06,-1.26e-06,0.0,0 STARLINK-5218,1 55636U 23021J   24197.94062690 -.00000126  00000-0 -27383-5 0  9991,2 55636  70.0004 281.6155 0003131 267.8059  92.2742 14.98330048 78169,6950.193,96.107,574.234,569.882,0.0
55636.0,STARLINK-5218,PAYLOAD,2024-07-16 12:59:42,14.98334487,0.000307,70.0003,280.1004,268.3622,91.7185,1.6643e-05,1.06e-06,0.0,0 STARLINK-5218,1 55636U 23021J   24198.54146295  .00000106  00000-0  16643-4 0  9994,2 55636  70.0003 280.1004 0003070 268.3622  91.7185 14.98334487 77951,6950.179,96.107,574.178,569.91,0.0
55636.0,STARLINK-5218,PAYLOAD,2024-07-16 14:35:50,14.98335844,0.0003055,70.0004,279.9321,268.3371,91.7439,3.1179e-05,2.79e-06,0.0,0 STARLINK-5218,1 55636U 23021J   24198.60822144  .00000279  00000-0  31179-4 0  9997,2 55636  70.0004 279.9321 0003055 268.3371  91.7439 14.98335844 78269,6950.175,96.107,574.163,569.917,0.0
55636.0,STARLINK-5218,PAYLOAD,2024-07-17 13:01:44,14.98322581,0.000299,70.0003,277.575,268.7924,91.2892,-6.9155e-06,-1.75e-06,0.0,0 STARLINK-5218,1 55636U 23021J   24199.54287373 -.00000175  00000-0 -69155-5 0  9993,2 55636  70.0003 277.5750 0002990 268.7924  91.2892 14.98322581 78108,6950.216,96.107,574.159,570.003,0.0
55636.0,STARLINK-5218,PAYLOAD,2024-07-17 14:37:52,14.98322994,0.0002991,70.0003,277.4067,269.0741,91.0075,-3.3578e-06,-1.33e-06,0.0,0 STARLINK-5218,1 55636U 23021J   24199.60963364 -.00000133  00000-0 -33578-5 0  9995,2 55636  70.0003 277.4067 0002991 269.0741  91.0075 14.98322994 78413,6950.215,96.107,574.158,570.001,0.0
55636.0,STARLINK-5218,PAYLOAD,2024-07-17 22:38:32,14.98326324,0.0003056,70.0001,276.5651,270.5142,89.5667,1.5555e-05,9.3e-07,0.0,0 STARLINK-5218,1 55636U 23021J   24199.94343217  .00000093  00000-0  15555-4 0  9998,2 55636  70.0001 276.5651 0003056 270.5142  89.5667 14.98326324 78460,6950.204,96.107,574.193,569.945,0.0
55636.0,STARLINK-5218,PAYLOAD,2024-07-18 05:03:04,14.98331445,0.0003086,69.9998,275.8921,270.7474,89.3331,7.0984e-05,7.54e-06,0.0,0 STARLINK-5218,1 55636U 23021J   24200.21046812  .00000754  00000-0  70984-4 0  9993,2 55636  69.9998 275.8921 0003086 270.7474  89.3331 14.98331445 78205,6950.188,96.107,574.198,569.909,0.0
55636.0,STARLINK-5218,PAYLOAD,2024-07-18 13:03:44,14.98337406,0.0003167,69.9996,275.0495,269.1028,90.9769,9.5055e-05,1.042e-05,0.0,0 STARLINK-5218,1 55636U 23021J   24200.54426320  .00001042  00000-0  95055-4 0  9992,2 55636  69.9996 275.0495 0003167 269.1028  90.9769 14.98337406 78552,6950.17,96.107,574.236,569.834,0.0
55636.0,STARLINK-5218,PAYLOAD,2024-07-18 14:39:52,14.98338215,0.0003159,69.9996,274.8813,269.2901,90.7896,0.00010436,1.153e-05,0.0,0 STARLINK-5218,1 55636U 23021J   24200.61102228  .00001153  00000-0  10436-3 0  9990,2 55636  69.9996 274.8813 0003159 269.2901  90.7896 14.98338215 78564,6950.167,96.106,574.228,569.837,0.0
55636.0,STARLINK-5218,PAYLOAD,2024-07-19 05:05:05,14.98328332,0.0003176,69.9994,273.3663,269.2297,90.8498,0.00013592,1.529e-05,0.0,0 STARLINK-5218,1 55636U 23021J   24201.21186785  .00001529  00000-0  13592-3 0  9990,2 55636  69.9994 273.3663 0003176 269.2297  90.8498 14.98328332 78351,6950.198,96.107,574.27,569.856,0.0
55636.0,STARLINK-5218,PAYLOAD,2024-07-19 14:41:53,14.98331258,0.0003179,69.9996,272.3575,270.6399,89.4396,0.00015894,1.804e-05,0.0,0 STARLINK-5218,1 55636U 23021J   24201.61242577  .00001804  00000-0  15894-3 0  9999,2 55636  69.9996 272.3575 0003179 270.6399  89.4396 14.98331258 78718,6950.189,96.107,574.263,569.845,0.0
55636.0,STARLINK-5218,PAYLOAD,2024-07-20 05:07:06,14.98329769,0.0003222,69.9996,270.841,271.8846,88.1944,2.2844e-05,1.8e-06,0.0,0 STARLINK-5218,1 55636U 23021J   24202.21326987  .00000180  00000-0  22844-4 0  9994,2 55636  69.9996 270.8410 0003222 271.8846  88.1944 14.98329769 78504,6950.194,96.107,574.298,569.819,0.0
55636.0,STARLINK-5218,PAYLOAD,2024-07-20 13:07:46,14.98335894,0.0003018,69.9995,269.9995,266.8862,93.1951,5.7724e-05,5.96e-06,0.0,0 STARLINK-5218,1 55636U 23021J   24202.54706473  .00000596  00000-0  57724-4 0  9998,2 55636  69.9995 269.9995 0003018 266.8862  93.1951 14.98335894 78550,6950.175,96.107,574.137,569.942,0.0
55636.0,STARLINK-5218,PAYLOAD,2024-07-20 14:43:54,14.98337534,0.0003158,69.9996,269.8312,270.2283,89.8514,5.7902e-05,5.98e-06,0.0,0 STARLINK-5218,1 55636U 23021J   24202.61382340  .00000598  00000-0  57902-4 0  9999,2 55636  69.9996 269.8312 0003158 270.2283  89.8514 14.98337534 78868,6950.17,96.107,574.229,569.84,0.0
55636.0,STARLINK-5218,PAYLOAD,2024-07-21 13:09:47,14.98330153,0.0003085,69.9996,267.4746,273.6929,86.3877,2.5804e-05,2.15e-06,0.0,0 STARLINK-5218,1 55636U 23021J   24203.54846825  .00000215  00000-0  25804-4 0  9997,2 55636  69.9996 267.4746 0003085 273.6929  86.3877 14.98330153 78703,6950.192,96.107,574.202,569.913,0.0
55636.0,STARLINK-5218,PAYLOAD,2024-07-22 09:59:32,14.98331609,0.0003103,69.9994,265.2865,272.8142,87.2662,3.9021e-05,3.73e-06,0.0,0 STARLINK-5218,1 55636U 23021J   24204.41634639  .00000373  00000-0  39021-4 0  9993,2 55636  69.9994 265.2865 0003103 272.8142  87.2662 14.98331609 79135,6950.188,96.107,574.21,569.896,0.0
55636.0,STARLINK-5218,PAYLOAD,2024-07-23 08:25:24,14.98334988,0.000318,69.999,262.9301,266.7737,93.3058,0.00010983,1.218e-05,0.0,0 STARLINK-5218,1 55636U 23021J   24205.35098039  .00001218  00000-0  10983-3 0  9999,2 55636  69.9990 262.9301 0003180 266.7737  93.3058 14.98334988 78978,6950.177,96.107,574.253,569.832,0.0
55636.0,STARLINK-5218,PAYLOAD,2024-07-24 05:15:10,14.98329776,0.0003167,69.9984,260.7407,265.7322,94.3476,-1.3769e-05,-2.57e-06,0.0,0 STARLINK-5218,1 55636U 23021J   24206.21886618 -.00000257  00000-0 -13769-4 0  9993,2 55636  69.9984 260.7407 0003167 265.7322  94.3476 14.98329776 79108,6950.194,96.107,574.26,569.857,0.0
55636.0,STARLINK-5218,PAYLOAD,2024-07-24 13:15:52,14.98311742,0.0004623,69.9962,259.8963,288.2592,71.8063,-0.00022603,-2.788e-05,0.0,0 STARLINK-5218,1 55636U 23021J   24206.55268526 -.00002788  00000-0 -22603-3 0  9999,2 55636  69.9962 259.8963 0004623 288.2592  71.8063 14.98311742 79158,6950.249,96.108,575.327,568.901,0.0
55636.0,STARLINK-5218,PAYLOAD,2024-07-25 06:53:20,14.98299306,0.0005406,69.996,258.0392,303.4974,56.5668,0.0002402,2.772e-05,0.0,0 STARLINK-5218,1 55636U 23021J   24207.28704786  .00002772  00000-0  24020-3 0  9999,2 55636  69.9960 258.0392 0005406 303.4974  56.5668 14.98299306 79564,6950.288,96.109,575.91,568.395,0.0
